LEMUR-2-MONSON          
1 42839U 17042Q   26068.46195507  .00017976  00000+0  72201-3 0  9993
2 42839  97.4034 249.9036 0006619 352.7862   7.3279 15.24988734472959
STARLINK-30312          
1 57641U 23122K   26068.43991047  .00001626  00000+0  70282-4 0  9999
2 57641  43.0030  93.4926 0001693 243.6138 116.4539 15.26737903142171
